[{"OBJECT_NAME":"ALSAT-2A","OBJECT_ID":"2010-035D","EPOCH":"2026-03-10T00:01:00.094656","MEAN_MOTION":14.74320559,"ECCENTRICITY":0.00014658,"INCLINATION":97.7655,"RA_OF_ASC_NODE":75.6786,"ARG_OF_PERICENTER":104.3576,"MEAN_ANOMALY":255.7796,"EPHEMERIS_TYPE":0,"CLASSIFICATION_TYPE":"U","NORAD_CAT_ID":36798,"ELEMENT_SET_NO":999,"REV_AT_EPOCH":83914,"BSTAR":0.0002074913,"MEAN_MOTION_DOT":1.326e-5,"MEAN_MOTION_DDOT":0},{"OBJECT_NAME":"IRIDIUM 33 DEB","OBJECT_ID":"1997-051JH","EPOCH":"2026-03-09T13:15:18.671616","MEAN_MOTION":14.77407981,"ECCENTRICITY":0.00147749,"INCLINATION":86.306,"RA_OF_ASC_NODE":267.8432,"ARG_OF_PERICENTER":223.6239,"MEAN_ANOMALY":189.8815,"EPHEMERIS_TYPE":0,"CLASSIFICATION_TYPE":"U","NORAD_CAT_ID":34540,"ELEMENT_SET_NO":999,"REV_AT_EPOCH":90302,"BSTAR":0.0014657078,"MEAN_MOTION_DOT":0.00010475,"MEAN_MOTION_DDOT":0}]
